{
  "type": "FeatureCollection",
  "features": [
    {
      "type": "Feature",
      "properties": {
        "norad_id": 36036,
        "name": "SMOS",
        "group": "resource",
        "lat": 53.57136118834498,
        "lon": 11.690923723992968,
        "alt_km": 753.7106595962623,
        "timestamp": "2025-12-21T03:56:50.511369+00:00",
        "meta_object_name": "SMOS",
        "meta_object_id": "2009-059A",
        "meta_epoch": "2025-12-20T12:21:18.783072",
        "meta_mean_motion": 14.39747686,
        "meta_eccentricity": 0.0001079,
        "meta_inclination": 98.438,
        "meta_ra_of_asc_node": 179.4481,
        "meta_arg_of_pericenter": 83.7466,
        "meta_mean_anomaly": 276.3845,
        "meta_ephemeris_type": 0,
        "meta_classification_type": "U",
        "meta_norad_cat_id": 36036,
        "meta_element_set_no": 999,
        "meta_rev_at_epoch": 84774,
        "meta_bstar": 0.00010402639,
        "meta_mean_motion_dot": 2.82e-06,
        "meta_mean_motion_ddot": 0,
        "tle_line1": "1 36036U 09059A   25354.51480073  .00000282  00000+0  10403-3 0  9990",
        "tle_line2": "2 36036  98.4380 179.4481 0001079  83.7466 276.3845 14.39747686847747"
      },
      "geometry": {
        "type": "Point",
        "coordinates": [
          11.690923723992968,
          53.57136118834498
        ]
      }
    },
    {
      "type": "Feature",
      "properties": {
        "norad_id": 36110,
        "name": "YAOGAN-7",
        "group": "resource",
        "lat": 20.76316402041503,
        "lon": -126.17684425082541,
        "alt_km": 646.58118461719,
        "timestamp": "2025-12-21T03:56:50.511379+00:00",
        "meta_object_name": "YAOGAN-7",
        "meta_object_id": "2009-069A",
        "meta_epoch": "2025-12-20T14:51:06.633792",
        "meta_mean_motion": 14.77742759,
        "meta_eccentricity": 0.0023346,
        "meta_inclination": 98.0296,
        "meta_ra_of_asc_node": 236.3475,
        "meta_arg_of_pericenter": 254.4203,
        "meta_mean_anomaly": 105.443,
        "meta_ephemeris_type": 0,
        "meta_classification_type": "U",
        "meta_norad_cat_id": 36110,
        "meta_element_set_no": 999,
        "meta_rev_at_epoch": 86325,
        "meta_bstar": 6.6216e-05,
        "meta_mean_motion_dot": 4.23e-06,
        "meta_mean_motion_ddot": 0,
        "tle_line1": "1 36110U 09069A   25354.61882678  .00000423  00000+0  66216-4 0  9993",
        "tle_line2": "2 36110  98.0296 236.3475 0023346 254.4203 105.4430 14.77742759863259"
      },
      "geometry": {
        "type": "Point",
        "coordinates": [
          -126.17684425082541,
          20.76316402041503
        ]
      }
    },
    {
      "type": "Feature",
      "properties": {
        "norad_id": 36605,
        "name": "TANDEM-X",
        "group": "resource",
        "lat": 77.79890643843727,
        "lon": -36.7867521656879,
        "alt_km": 499.88229442254124,
        "timestamp": "2025-12-21T03:56:50.511388+00:00",
        "meta_object_name": "TANDEM-X",
        "meta_object_id": "2010-030A",
        "meta_epoch": "2025-12-20T11:47:12.909696",
        "meta_mean_motion": 15.19154059,
        "meta_eccentricity": 0.00018,
        "meta_inclination": 97.4444,
        "meta_ra_of_asc_node": 359.7582,
        "meta_arg_of_pericenter": 78.1402,
        "meta_mean_anomaly": 282.0034,
        "meta_ephemeris_type": 0,
        "meta_classification_type": "U",
        "meta_norad_cat_id": 36605,
        "meta_element_set_no": 999,
        "meta_rev_at_epoch": 85951,
        "meta_bstar": 3.1882e-05,
        "meta_mean_motion_dot": 6.03e-06,
        "meta_mean_motion_ddot": 0,
        "tle_line1": "1 36605U 10030A   25354.49112164  .00000603  00000+0  31882-4 0  9995",
        "tle_line2": "2 36605  97.4444 359.7582 0001800  78.1402 282.0034 15.19154059859511"
      },
      "geometry": {
        "type": "Point",
        "coordinates": [
          -36.7867521656879,
          77.79890643843727
        ]
      }
    },
    {
      "type": "Feature",
      "properties": {
        "norad_id": 36795,
        "name": "CARTOSAT-2B",
        "group": "resource",
        "lat": -21.885137954221303,
        "lon": 47.07121862675496,
        "alt_km": 636.1592133634285,
        "timestamp": "2025-12-21T03:56:50.511398+00:00",
        "meta_object_name": "CARTOSAT-2B",
        "meta_object_id": "2010-035A",
        "meta_epoch": "2025-12-20T19:55:37.081056",
        "meta_mean_motion": 14.7873418,
        "meta_eccentricity": 0.001279,
        "meta_inclination": 97.7846,
        "meta_ra_of_asc_node": 43.5978,
        "meta_arg_of_pericenter": 52.726,
        "meta_mean_anomaly": 307.5115,
        "meta_ephemeris_type": 0,
        "meta_classification_type": "U",
        "meta_norad_cat_id": 36795,
        "meta_element_set_no": 999,
        "meta_rev_at_epoch": 83349,
        "meta_bstar": 4.8128e-05,
        "meta_mean_motion_dot": 3.04e-06,
        "meta_mean_motion_ddot": 0,
        "tle_line1": "1 36795U 10035A   25354.83029029  .00000304  00000+0  48128-4 0  9994",
        "tle_line2": "2 36795  97.7846  43.5978 0012790  52.7260 307.5115 14.78734180833492"
      },
      "geometry": {
        "type": "Point",
        "coordinates": [
          47.07121862675496,
          -21.885137954221303
        ]
      }
    },
    {
      "type": "Feature",
      "properties": {
        "norad_id": 36834,
        "name": "YAOGAN-10",
        "group": "resource",
        "lat": -56.143796786961204,
        "lon": -177.04409910415907,
        "alt_km": 622.7351484680448,
        "timestamp": "2025-12-21T03:56:50.511407+00:00",
        "meta_object_name": "YAOGAN-10",
        "meta_object_id": "2010-038A",
        "meta_epoch": "2025-12-20T20:57:57.078720",
        "meta_mean_motion": 14.84634064,
        "meta_eccentricity": 0.0001417,
        "meta_inclination": 97.9133,
        "meta_ra_of_asc_node": 14.6333,
        "meta_arg_of_pericenter": 78.5623,
        "meta_mean_anomaly": 44.5372,
        "meta_ephemeris_type": 0,
        "meta_classification_type": "U",
        "meta_norad_cat_id": 36834,
        "meta_element_set_no": 999,
        "meta_rev_at_epoch": 83074,
        "meta_bstar": 9.013e-05,
        "meta_mean_motion_dot": 7.08e-06,
        "meta_mean_motion_ddot": 0,
        "tle_line1": "1 36834U 10038A   25354.87357730  .00000708  00000+0  90130-4 0  9996",
        "tle_line2": "2 36834  97.9133  14.6333 0001417  78.5623  44.5372 14.84634064830749"
      },
      "geometry": {
        "type": "Point",
        "coordinates": [
          -177.04409910415907,
          -56.143796786961204
        ]
      }
    },
    {
      "type": "Feature",
      "properties": {
        "norad_id": 37216,
        "name": "COSMO-SKYMED 4",
        "group": "resource",
        "lat": 80.77475222002795,
        "lon": 117.85088822334832,
        "alt_km": 614.1002982239561,
        "timestamp": "2025-12-21T03:56:50.511416+00:00",
        "meta_object_name": "COSMO-SKYMED 4",
        "meta_object_id": "2010-060A",
        "meta_epoch": "2025-12-20T19:27:47.693952",
        "meta_mean_motion": 14.82156261,
        "meta_eccentricity": 0.0001435,
        "meta_inclination": 97.8799,
        "meta_ra_of_asc_node": 176.0124,
        "meta_arg_of_pericenter": 83.2205,
        "meta_mean_anomaly": 276.9171,
        "meta_ephemeris_type": 0,
        "meta_classification_type": "U",
        "meta_norad_cat_id": 37216,
        "meta_element_set_no": 999,
        "meta_rev_at_epoch": 81814,
        "meta_bstar": 0.00014978,
        "meta_mean_motion_dot": 1.14e-05,
        "meta_mean_motion_ddot": 0,
        "tle_line1": "1 37216U 10060A   25354.81096868  .00001140  00000+0  14978-3 0  9998",
        "tle_line2": "2 37216  97.8799 176.0124 0001435  83.2205 276.9171 14.82156261818145"
      },
      "geometry": {
        "type": "Point",
        "coordinates": [
          117.85088822334832,
          80.77475222002795
        ]
      }
    },
    {
      "type": "Feature",
      "properties": {
        "norad_id": 37387,
        "name": "RESOURCESAT-2",
        "group": "resource",
        "lat": 16.474629763424648,
        "lon": 56.05636088807015,
        "alt_km": 816.1428131424409,
        "timestamp": "2025-12-21T03:56:50.511425+00:00",
        "meta_object_name": "RESOURCESAT-2",
        "meta_object_id": "2011-015A",
        "meta_epoch": "2025-12-20T19:25:23.901888",
        "meta_mean_motion": 14.21600185,
        "meta_eccentricity": 0.0006051,
        "meta_inclination": 98.7866,
        "meta_ra_of_asc_node": 58.3245,
        "meta_arg_of_pericenter": 20.9139,
        "meta_mean_anomaly": 339.2285,
        "meta_ephemeris_type": 0,
        "meta_classification_type": "U",
        "meta_norad_cat_id": 37387,
        "meta_element_set_no": 999,
        "meta_rev_at_epoch": 76083,
        "meta_bstar": 6.2183e-05,
        "meta_mean_motion_dot": 9.2e-07,
        "meta_mean_motion_ddot": 0,
        "tle_line1": "1 37387U 11015A   25354.80930442  .00000092  00000+0  62183-4 0  9999",
        "tle_line2": "2 37387  98.7866  58.3245 0006051  20.9139 339.2285 14.21600185760831"
      },
      "geometry": {
        "type": "Point",
        "coordinates": [
          56.05636088807015,
          16.474629763424648
        ]
      }
    }
  ]
}